[{"OBJECT_NAME":"STARLINK-30882","OBJECT_ID":"2023-178F","EPOCH":"2026-03-09T04:23:59.133120","MEAN_MOTION":15.30193601,"ECCENTRICITY":0.00010164,"INCLINATION":53.1606,"RA_OF_ASC_NODE":3.4445,"ARG_OF_PERICENTER":69.5386,"MEAN_ANOMALY":290.5724,"EPHEMERIS_TYPE":0,"CLASSIFICATION_TYPE":"U","NORAD_CAT_ID":58379,"ELEMENT_SET_NO":999,"REV_AT_EPOCH":12981,"BSTAR":4.1421836e-5,"MEAN_MOTION_DOT":8.68e-6,"MEAN_MOTION_DDOT":0},{"OBJECT_NAME":"TRANSPORTER-1 OBJECT M","OBJECT_ID":"2021-006M","EPOCH":"2026-03-09T22:05:37.843296","MEAN_MOTION":15.3227845,"ECCENTRICITY":0.00102759,"INCLINATION":97.2377,"RA_OF_ASC_NODE":116.7915,"ARG_OF_PERICENTER":187.5492,"MEAN_ANOMALY":172.5597,"EPHEMERIS_TYPE":0,"CLASSIFICATION_TYPE":"U","NORAD_CAT_ID":47424,"ELEMENT_SET_NO":999,"REV_AT_EPOCH":28439,"BSTAR":0.00023985652,"MEAN_MOTION_DOT":7.411e-5,"MEAN_MOTION_DDOT":0}]
